OBJECT_NAME,OBJECT_ID,EPOCH,MEAN_MOTION,ECCENTRICITY,INCLINATION,RA_OF_ASC_NODE,ARG_OF_PERICENTER,MEAN_ANOMALY,EPHEMERIS_TYPE,CLASSIFICATION_TYPE,NORAD_CAT_ID,ELEMENT_SET_NO,REV_AT_EPOCH,BSTAR,MEAN_MOTION_DOT,MEAN_MOTION_DDOT
STARLINK-33812,2025-094R,2026-06-13T21:26:39.958656,14.98332547,.0002487,70.0016,351.8867,270.9778,89.1096,0,U,63879,999,6161,.93686E-4,.1025E-4,0
STARLINK-33779,2025-094S,2026-06-13T21:50:42.679680,14.98334688,.0002824,70.0019,351.9524,265.5887,94.4950,0,U,63880,999,6161,.13138E-3,.1475E-4,0
STARLINK-33905,2025-094T,2026-06-13T22:26:45.966336,14.98340746,.00028228,70.0014,351.6378,262.9572,97.1266,0,U,63881,999,6162,.42585951E-3,.4993E-4,0
STARLINK-34003,2025-094U,2026-06-14T04:00:01.998720,15.47957567,.0003127,70.0012,305.2082,269.6797,33.5060,0,U,63882,999,583,.3482E-1,.2050667E-1,0
STARLINK-33968,2025-094V,2026-06-13T22:08:58.973856,14.98334920,.0002969,70.0017,351.9915,265.7838,94.2981,0,U,63883,999,6161,.27215E-3,.3156E-4,0
STARLINK-33943,2025-094W,2026-06-13T22:20:43.564128,14.98335878,.0003079,70.0017,351.6219,267.4938,92.5869,0,U,63884,999,6162,.24827E-3,.2871E-4,0
STARLINK-33858,2025-094X,2026-06-13T22:56:47.273280,14.98339273,.0002796,70.0013,351.7072,270.0904,89.9935,0,U,63885,999,6162,.28592E-3,.3321E-4,0
STARLINK-33885,2025-094Y,2026-06-13T22:32:44.828736,14.98335637,.0002713,70.0014,351.6484,268.9380,91.1469,0,U,63886,999,6162,.2093E-3,.2406E-4,0
STARLINK-33904,2025-094Z,2026-06-13T22:26:58.547904,14.98336442,.0002132,70.0016,351.6325,268.7283,91.3631,0,U,63887,999,6162,.27242E-3,.316E-4,0
STARLINK-33981,2025-094AA,2026-06-13T21:44:56.341824,14.98332943,.000233,70.0013,351.9328,272.5259,87.5633,0,U,63888,999,6161,.13359E-3,.1501E-4,0
STARLINK-33738,2025-094AB,2026-06-13T21:26:54.028032,14.98336727,.00026991,70.0016,351.8650,266.7955,93.2895,0,U,63889,999,6183,.25320367E-3,.293E-4,0
STARLINK-34116,2025-095A,2026-06-13T19:01:48.674208,15.27585193,.00032283,43.0042,353.6476,278.2390,81.8096,0,U,63890,999,6248,.80410531E-3,.21936E-3,0
STARLINK-34123,2025-095B,2026-06-13T19:22:09.783552,15.27613460,.00005901,43.0091,353.7631,169.6648,190.4216,0,U,63891,999,6248,.82431763E-3,.22513E-3,0
STARLINK-33972,2025-095D,2026-06-13T09:25:45.848928,15.27584955,.00007902,43.0016,355.8026,264.3388,95.7373,0,U,63893,999,6242,.65169275E-3,.17717E-3,0
STARLINK-33973,2025-095E,2026-06-14T04:58:00.149952,15.27587207,.0000627,43.0126,350.7356,148.7823,211.3066,0,U,63894,999,6255,.62296E-3,.16923E-3,0
STARLINK-34119,2025-095F,2026-06-13T19:11:03.431328,15.27578271,.00015671,42.9991,353.6917,285.3750,74.6928,0,U,63895,999,6248,.77396541E-3,.21096E-3,0
STARLINK-34143,2025-095G,2026-06-13T06:00:47.771424,15.27593960,.0001316,43.0052,356.4518,268.4243,91.6458,0,U,63896,999,6240,.95455E-3,.26109E-3,0
STARLINK-33957,2025-095H,2026-06-13T19:16:36.544800,15.27593550,.00046315,43.0009,353.7234,276.4913,83.5411,0,U,63897,999,6247,.76935511E-3,.20982E-3,0
STARLINK-34120,2025-095J,2026-06-14T04:52:26.417856,15.27570831,.000036,42.9991,350.6977,245.1206,114.9608,0,U,63898,999,6255,.92106E-3,.25163E-3,0
STARLINK-34134,2025-095K,2026-06-12T19:23:54.822624,15.27614525,.00010775,43.0025,359.1539,266.6195,93.4533,0,U,63899,999,6233,.83497419E-3,.2281E-3,0
STARLINK-34118,2025-095L,2026-06-13T19:05:30.446592,15.27579878,.00015212,43.0000,353.6625,258.1407,101.9275,0,U,63900,999,6248,.73546221E-3,.20031E-3,0
STARLINK-34125,2025-095M,2026-06-13T06:11:52.741248,15.27617282,.0000842,43.0035,356.5113,271.2953,88.7802,0,U,63901,999,6239,.69573E-3,.18954E-3,0
STARLINK-33955,2025-095N,2026-06-14T05:01:40.783584,15.27598599,.0002544,42.9948,350.7448,275.0782,84.9779,0,U,63902,999,6254,.95981E-3,.2626E-3,0
STARLINK-34097,2025-095P,2026-06-13T05:57:06.749856,15.27622111,.0000204,42.9986,356.4327,12.9907,347.0949,0,U,63903,999,6239,.85585E-3,.23394E-3,0
STARLINK-34092,2025-095Q,2026-06-13T19:12:54.537408,15.27589732,.00003229,43.0044,353.7039,209.1337,150.9497,0,U,63904,999,6247,.7010546E-3,.19085E-3,0
STARLINK-34114,2025-095R,2026-06-13T19:24:00.959616,15.27595611,.00003238,43.0055,353.7665,122.0677,238.0206,0,U,63905,999,6247,.11171795E-2,.30622E-3,0
STARLINK-33770,2025-095S,2026-06-13T05:42:17.139168,15.27594780,.0002311,43.0027,356.3507,268.5561,91.5026,0,U,63906,999,6239,.70136E-3,.19097E-3,0
STARLINK-34106,2025-095T,2026-06-13T19:44:09.083040,15.27593236,.00001862,43.0062,352.9953,88.4366,271.6507,0,U,63907,999,6248,.95977876E-3,.26253E-3,0
STARLINK-34083,2025-095U,2026-06-13T19:18:27.562752,15.27591983,.0002197,43.0054,353.7361,111.7461,248.3625,0,U,63908,999,6247,.76579117E-3,.20878E-3,0
STARLINK-34066,2025-095V,2026-06-12T19:25:46.959456,15.27599304,.00046018,43.0006,359.1621,273.4810,86.5516,0,U,63909,999,6232,.74548736E-3,.20325E-3,0
